[Satellite]
VERSION=1.1
NAME=SL-8 R/B
NICKNAME=SL-8 R/B
TLE1=1 25723U 99022C   17186.16617517  .00003906  00000-0  65381-4 0  9993
TLE2=2 25723  48.4173  71.5293 0009820 124.9573 235.2295 15.54279055  8970
